[{"OBJECT_NAME":"STARLINK-35617","OBJECT_ID":"2025-259A","EPOCH":"2026-03-09T21:59:43.846080","MEAN_MOTION":15.27597426,"ECCENTRICITY":0.00014513,"INCLINATION":42.9975,"RA_OF_ASC_NODE":273.2752,"ARG_OF_PERICENTER":358.983,"MEAN_ANOMALY":1.1019,"EPHEMERIS_TYPE":0,"CLASSIFICATION_TYPE":"U","NORAD_CAT_ID":66422,"ELEMENT_SET_NO":999,"REV_AT_EPOCH":1952,"BSTAR":0.0014261737,"MEAN_MOTION_DOT":0.00039213,"MEAN_MOTION_DDOT":0},{"OBJECT_NAME":"SL-3 R\/B","OBJECT_ID":"1981-065B","EPOCH":"2026-03-09T21:58:16.284000","MEAN_MOTION":15.33300883,"ECCENTRICITY":0.00117648,"INCLINATION":97.6337,"RA_OF_ASC_NODE":111.1786,"ARG_OF_PERICENTER":10.529,"MEAN_ANOMALY":349.6196,"EPHEMERIS_TYPE":0,"CLASSIFICATION_TYPE":"U","NORAD_CAT_ID":12586,"ELEMENT_SET_NO":999,"REV_AT_EPOCH":43499,"BSTAR":0.00030084921,"MEAN_MOTION_DOT":9.62e-5,"MEAN_MOTION_DDOT":0}]
